[{"OBJECT_NAME":"STARLINK-30942","OBJECT_ID":"2023-183E","EPOCH":"2026-03-09T23:17:36.085056","MEAN_MOTION":15.26676522,"ECCENTRICITY":9.647e-5,"INCLINATION":43.0005,"RA_OF_ASC_NODE":39.4891,"ARG_OF_PERICENTER":270.921,"MEAN_ANOMALY":89.1531,"EPHEMERIS_TYPE":0,"CLASSIFICATION_TYPE":"U","NORAD_CAT_ID":58441,"ELEMENT_SET_NO":999,"REV_AT_EPOCH":12678,"BSTAR":0.00048321927,"MEAN_MOTION_DOT":0.00012699,"MEAN_MOTION_DDOT":0},{"OBJECT_NAME":"TYCHE","OBJECT_ID":"2024-149AE","EPOCH":"2026-03-09T21:56:23.347104","MEAN_MOTION":15.258912,"ECCENTRICITY":0.00028588,"INCLINATION":97.3802,"RA_OF_ASC_NODE":148.0484,"ARG_OF_PERICENTER":233.085,"MEAN_ANOMALY":127.0127,"EPHEMERIS_TYPE":0,"CLASSIFICATION_TYPE":"U","NORAD_CAT_ID":60496,"ELEMENT_SET_NO":999,"REV_AT_EPOCH":8676,"BSTAR":0.00024931274,"MEAN_MOTION_DOT":6.318e-5,"MEAN_MOTION_DDOT":0}]
